STARLINK-1008           
1 44714C 19074B   25083.48937500 -.00021881  00000+0 -14657-2 0   835
2 44714  53.0548 318.7272 0001624  89.5214  71.8894 15.06430548    13
